Satellite: AO-10
Catalog number: 14129
Epoch time:      08274.07244828
Element set:    0570
Inclination:      026.0350 deg
RA of node:       193.1617 deg
Eccentricity:    0.5962495
Arg of perigee:   161.1534 deg
Mean anomaly:     236.8611 deg
Mean motion:   02.05868011 rev/day
Decay rate:       -6.9e-07 rev/day^2
Epoch rev:           19026
Checksum:              294

Satellite: UO-11
Catalog number: 14781
Epoch time:      08276.16699058
Element set:     779
Inclination:      098.1446 deg
RA of node:       311.7484 deg
Eccentricity:    0.0010165
Arg of perigee:   088.7997 deg
Mean anomaly:     271.4523 deg
Mean motion:   14.79666500 rev/day
Decay rate:        9.1e-07 rev/day^2
Epoch rev:           31967
Checksum:              349

Satellite: RS-15
Catalog number: 23439
Epoch time:      08275.62118943
Element set:    0208
Inclination:      064.8196 deg
RA of node:       322.9398 deg
Eccentricity:    0.0146043
Arg of perigee:   102.2356 deg
Mean anomaly:     259.4965 deg
Mean motion:   11.27552327 rev/day
Decay rate:       -3.9e-07 rev/day^2
Epoch rev:           56696
Checksum:              331

Satellite: FO-29
Catalog number: 24278
Epoch time:      08275.76064273
Element set:    0876
Inclination:      098.5771 deg
RA of node:       178.0623 deg
Eccentricity:    0.0349948
Arg of perigee:   299.7808 deg
Mean anomaly:     056.8950 deg
Mean motion:   13.52940136 rev/day
Decay rate:       1.01e-06 rev/day^2
Epoch rev:           59880
Checksum:              365

Satellite: SO-33
Catalog number: 25509
Epoch time:      08276.76294951
Element set:     293
Inclination:      031.4332 deg
RA of node:       068.0855 deg
Eccentricity:    0.0355335
Arg of perigee:   247.7340 deg
Mean anomaly:     108.5255 deg
Mean motion:   14.28227775 rev/day
Decay rate:       -1.5e-07 rev/day^2
Epoch rev:           51900
Checksum:              310

Satellite: AO-40
Catalog number: 26609
Epoch time:      08275.47787406
Element set:     127
Inclination:      007.8630 deg
RA of node:       057.5649 deg
Eccentricity:    0.7936977
Arg of perigee:   128.9884 deg
Mean anomaly:     332.9342 deg
Mean motion:   01.25585697 rev/day
Decay rate:      -3.81e-06 rev/day^2
Epoch rev:            3637
Checksum:              366

Satellite: VO-52
Catalog number: 28650
Epoch time:      08276.72892642
Element set:      46
Inclination:      097.7789 deg
RA of node:       340.3269 deg
Eccentricity:    0.0027538
Arg of perigee:   147.6503 deg
Mean anomaly:     212.6365 deg
Mean motion:   14.81501498 rev/day
Decay rate:      -2.83e-06 rev/day^2
Epoch rev:           18452
Checksum:              336

Satellite: PO-63
Catalog number: 29712
Epoch time:      08276.84034452
Element set:     845
Inclination:      097.8651 deg
RA of node:       332.9509 deg
Eccentricity:    0.0015067
Arg of perigee:   035.2411 deg
Mean anomaly:     324.9783 deg
Mean motion:   14.80280129 rev/day
Decay rate:       3.62e-06 rev/day^2
Epoch rev:            9339
Checksum:              318

/EX
SB KEPS @ AMSAT  $ORB08276.D
Orbital Elements  08276.MICROS

HR AMSAT ORBITAL ELEMENTS FOR THE MICROSATS
FROM WA5QGD FORT WORTH,TX October 2, 2008
Send Subscribe/unsubscribe to KEPS at 
http://www.amsat.org/mailman/listinfo/keps
BID: ORB08276.D
TO ALL RADIO AMATEURS BT

Satellite: AO-16
Catalog number: 20439
Epoch time:      08276.61999292
Element set:     431
Inclination:      098.2434 deg
RA of node:       251.2597 deg
Eccentricity:    0.0010162
Arg of perigee:   214.0848 deg
Mean anomaly:     145.9673 deg
Mean motion:   14.31804182 rev/day
Decay rate:        1.4e-07 rev/day^2
Epoch rev:           97629
Checksum:              317

Satellite: LO-19
Catalog number: 20442
Epoch time:      08275.53157241
Element set:    0354
Inclination:      098.2123 deg
RA of node:       258.4316 deg
Eccentricity:    0.0011240
Arg of perigee:   214.3487 deg
Mean anomaly:     145.6989 deg
Mean motion:   14.32042290 rev/day
Decay rate:       1.03e-06 rev/day^2
Epoch rev:           97629
Checksum:              291

Satellite: AO-27
Catalog number: 22825
Epoch time:      08276.59173585
Element set:      74
Inclination:      098.3991 deg
RA of node:       232.6532 deg
Eccentricity:    0.0007603
Arg of perigee:   307.6024 deg
Mean anomaly:     052.4466 deg
Mean motion:   14.29247396 rev/day
Decay rate:       -6.5e-07 rev/day^2
Epoch rev:           78311
Checksum:              322

Satellite: IO-26
Catalog number: 22826
Epoch time:      08275.85713272
Element set:     786
Inclination:      098.3904 deg
RA of node:       232.8061 deg
Eccentricity:    0.0008366
Arg of perigee:   307.1129 deg
Mean anomaly:     052.9303 deg
Mean motion:   14.29497507 rev/day
Decay rate:       -1.3e-07 rev/day^2
Epoch rev:           78310
Checksum:              312

Satellite: GO-32
Catalog number: 25397
Epoch time:      08276.82080076
Element set:     711
Inclination:      098.3548 deg
RA of node:       306.6208 deg
Eccentricity:    0.0000567
Arg of perigee:   328.1476 deg
Mean anomaly:     031.9657 deg
Mean motion:   14.23148798 rev/day
Decay rate:       -3.2e-07 rev/day^2
Epoch rev:           53152
Checksum:              316

Satellite: NO-44
Catalog number: 26931
Epoch time:      08276.82023626
Element set:     991
Inclination:      067.0552 deg
RA of node:       007.3778 deg
Eccentricity:    0.0007229
Arg of perigee:   261.9660 deg
Mean anomaly:     098.0623 deg
Mean motion:   14.29534898 rev/day
Decay rate:        8.9e-07 rev/day^2
Epoch rev:           36579
Checksum:              346

Satellite: SO-50
Catalog number: 27607
Epoch time:      08276.59873398
Element set:     712
Inclination:      064.5576 deg
RA of node:       087.4233 deg
Eccentricity:    0.0085777
Arg of perigee:   258.7138 deg
Mean anomaly:     100.4292 deg
Mean motion:   14.71382024 rev/day
Decay rate:      -1.67e-06 rev/day^2
Epoch rev:           31077
Checksum:              333

Satellite: CO-55
Catalog number: 27844
Epoch time:      08276.56522489
Element set:     408
Inclination:      098.7184 deg
RA of node:       283.3539 deg
Eccentricity:    0.0010069
Arg of perigee:   161.4003 deg
Mean anomaly:     198.7549 deg
Mean motion:   14.20598663 rev/day
Decay rate:        3.2e-07 rev/day^2
Epoch rev:           27268
Checksum:              340

Satellite: CO-57
Catalog number: 27848
Epoch time:      08276.50734315
Element set:     359
Inclination:      098.7186 deg
RA of node:       282.3745 deg
Eccentricity:    0.0009621
Arg of perigee:   166.2831 deg
Mean anomaly:     193.8605 deg
Mean motion:   14.20406343 rev/day
Decay rate:        1.0e-07 rev/day^2
Epoch rev:           27264
Checksum:              316

Satellite: AO-51
Catalog number: 28375
Epoch time:      08276.56568593
Element set:     212
Inclination:      098.0666 deg
RA of node:       295.0756 deg
Eccentricity:    0.0083217
Arg of perigee:   186.5216 deg
Mean anomaly:     173.4903 deg
Mean motion:   14.40619476 rev/day
Decay rate:       -1.0e-08 rev/day^2
Epoch rev:           22386
Checksum:              329

Satellite: CO-56
Catalog number: 28941
Epoch time:      08276.62158868
Element set:     427
Inclination:      098.1184 deg
RA of node:       042.4913 deg
Eccentricity:    0.0149535
Arg of perigee:   009.7122 deg
Mean anomaly:     350.7185 deg
Mean motion:   15.62037867 rev/day
Decay rate:     2.8127e-04 rev/day^2
Epoch rev:           14678
Checksum:              345

Satellite: CP3
Catalog number: 31128
Epoch time:      08275.87449748
Element set:    0447
Inclination:      098.0301 deg
RA of node:       334.7422 deg
Eccentricity:    0.0102803
Arg of perigee:   005.7781 deg
Mean anomaly:     354.4564 deg
Mean motion:   14.51977646 rev/day
Decay rate:       -4.7e-07 rev/day^2
Epoch rev:           07741
Checksum:              316

Satellite: CP4
Catalog number: 31132
Epoch time:      08275.74309537
Element set:    0428
Inclination:      098.0318 deg
RA of node:       337.2981 deg
Eccentricity:    0.0085269
Arg of perigee:   358.5163 deg
Mean anomaly:     001.5766 deg
Mean motion:   14.55145109 rev/day
Decay rate:       1.12e-06 rev/day^2
Epoch rev:           07744
Checksum:              306

Satellite: CO-65
Catalog number: 32785
Epoch time:      08276.78716700
Element set:     173
Inclination:      097.9834 deg
RA of node:       336.3824 deg
Eccentricity:    0.0015748
Arg of perigee:   143.1898 deg
Mean anomaly:     217.0389 deg
Mean motion:   14.81395759 rev/day
Decay rate:       -8.6e-07 rev/day^2
Epoch rev:            2333
Checksum:              353

/EX
SB KEPS @ AMSAT  $ORB08276.W
Orbital Elements  08276.WEATHER

HR AMSAT ORBITAL ELEMENTS FOR WEATHER SATELLITES
FROM WA5QGD FORT WORTH,TX October 2, 2008
Send Subscribe/unsubscribe to KEPS at 
http://www.amsat.org/mailman/listinfo/keps
BID: ORB08276.W
TO ALL RADIO AMATEURS BT

Satellite: NOAA-10
Catalog number: 16969
Epoch time:      08276.19561953
Element set:     311
Inclination:      098.7174 deg
RA of node:       297.9297 deg
Eccentricity:    0.0011642
Arg of perigee:   227.1527 deg
Mean anomaly:     132.8675 deg
Mean motion:   14.27368647 rev/day
Decay rate:      -1.21e-06 rev/day^2
Epoch rev:           14670
Checksum:              333

Satellite: NOAA-11
Catalog number: 19531
Epoch time:      08275.87990022
Element set:     342
Inclination:      098.7970 deg
RA of node:       003.7047 deg
Eccentricity:    0.0012080
Arg of perigee:   121.8378 deg
Mean anomaly:     238.3992 deg
Mean motion:   14.14878471 rev/day
Decay rate:        9.4e-07 rev/day^2
Epoch rev:            3299
Checksum:              319

